[Satellite]
VERSION=1.1
NAME=GLOBALSTAR M078 [+]
NICKNAME=GLOBALSTAR M078 [+]
TLE1=1 39076U 13005E   17186.24679640 -.00000118  00000-0 -78887-4 0  9999
TLE2=2 39076  51.9876 157.9115 0000506 309.2250  50.8572 12.62269259203404
